{"type": "FeatureCollection", "features": [ {"type": "Feature", "properties": {"norad_id": 33599, "name": "FENGYUN 1C DEB", "group": "fengyun-1c-debris", "lat": -63.06376277866954, "lon": 80.4328303543049, "alt_km": 467.4418753931641, "timestamp": "2025-12-27T08:36:18.669010+00:00", "meta": {"OBJECT_NAME": "FENGYUN 1C DEB", "OBJECT_ID": "1999-025DCG", "EPOCH": "2025-12-25T23:37:33.854304", "MEAN_MOTION": 15.16315176, "ECCENTRICITY": 0.0121733, "INCLINATION": 96.6102, "RA_OF_ASC_NODE": 66.0422, "ARG_OF_PERICENTER": 252.911, "MEAN_ANOMALY": 105.8762, "EPHEMERIS_TYPE": 0, "CLASSIFICATION_TYPE": "U", "NORAD_CAT_ID": 33599, "ELEMENT_SET_NO": 999, "REV_AT_EPOCH": 66204, "BSTAR": 0.0016753, "MEAN_MOTION_DOT": 0.00039371, "MEAN_MOTION_DDOT": 0}, "tle": {"line1": "1 33599U 99025DCG 25359.98441961  .00039371  00000+0  16753-2 0  9996", "line2": "2 33599  96.6102  66.0422 0121733 252.9110 105.8762 15.16315176662045"}}, "geometry": {"type": "Point", "coordinates": [80.4328303543049, -63.06376277866954]}}, {"type": "Feature", "properties": {"norad_id": 33601, "name": "FENGYUN 1C DEB", "group": "fengyun-1c-debris", "lat": 46.34257135121572, "lon": -14.775074543285697, "alt_km": 764.4763858561519, "timestamp": "2025-12-27T08:36:18.669020+00:00", "meta": {"OBJECT_NAME": "FENGYUN 1C DEB", "OBJECT_ID": "1999-025DCJ", "EPOCH": "2025-12-26T09:49:00.253344", "MEAN_MOTION": 14.07968589, "ECCENTRICITY": 0.0158235, "INCLINATION": 98.3146, "RA_OF_ASC_NODE": 155.5341, "ARG_OF_PERICENTER": 103.6713, "MEAN_ANOMALY": 258.2132, "EPHEMERIS_TYPE": 0, "CLASSIFICATION_TYPE": "U", "NORAD_CAT_ID": 33601, "ELEMENT_SET_NO": 999, "REV_AT_EPOCH": 90872, "BSTAR": 0.00085503, "MEAN_MOTION_DOT": 1.592e-05, "MEAN_MOTION_DDOT": 0}, "tle": {"line1": "1 33601U 99025DCJ 25360.40903071  .00001592  00000+0  85503-3 0  9998", "line2": "2 33601  98.3146 155.5341 0158235 103.6713 258.2132 14.07968589908721"}}, "geometry": {"type": "Point", "coordinates": [-14.775074543285697, 46.34257135121572]}}, {"type": "Feature", "properties": {"norad_id": 33603, "name": "FENGYUN 1C DEB", "group": "fengyun-1c-debris", "lat": -11.406396504552792, "lon": -59.74987704921399, "alt_km": 510.706679488786, "timestamp": "2025-12-27T08:36:18.669030+00:00", "meta": {"OBJECT_NAME": "FENGYUN 1C DEB", "OBJECT_ID": "1999-025DCL", "EPOCH": "2025-12-24T14:07:49.848096", "MEAN_MOTION": 14.79984872, "ECCENTRICITY": 0.02199615, "INCLINATION": 98.8064, "RA_OF_ASC_NODE": 295.4202, "ARG_OF_PERICENTER": 35.1993, "MEAN_ANOMALY": 326.3521, "EPHEMERIS_TYPE": 0, "CLASSIFICATION_TYPE": "U", "NORAD_CAT_ID": 33603, "ELEMENT_SET_NO": 999, "REV_AT_EPOCH": 99035, "BSTAR": 0.00030515268, "MEAN_MOTION_DOT": 3.413e-05, "MEAN_MOTION_DDOT": 0}, "tle": {"line1": "1 33603U 99025DCL 25358.58877139  .00003413  00000+0  30515-3 0  9998", "line2": "2 33603  98.8064 295.4202 0219961  35.1993 326.3521 14.79984872990351"}}, "geometry": {"type": "Point", "coordinates": [-59.74987704921399, -11.406396504552792]}}, {"type": "Feature", "properties": {"norad_id": 33605, "name": "FENGYUN 1C DEB", "group": "fengyun-1c-debris", "lat": 58.0048485199488, "lon": -14.341995087172199, "alt_km": 823.9270684502717, "timestamp": "2025-12-27T08:36:18.669040+00:00", "meta": {"OBJECT_NAME": "FENGYUN 1C DEB", "OBJECT_ID": "1999-025DCN", "EPOCH": "2025-12-26T06:48:43.655904", "MEAN_MOTION": 14.07794683, "ECCENTRICITY": 0.0056867, "INCLINATION": 98.6991, "RA_OF_ASC_NODE": 358.8081, "ARG_OF_PERICENTER": 37.0959, "MEAN_ANOMALY": 338.1047, "EPHEMERIS_TYPE": 0, "CLASSIFICATION_TYPE": "U", "NORAD_CAT_ID": 33605, "ELEMENT_SET_NO": 999, "REV_AT_EPOCH": 60009, "BSTAR": 0.00064401, "MEAN_MOTION_DOT": 1.065e-05, "MEAN_MOTION_DDOT": 0}, "tle": {"line1": "1 33605U 99025DCN 25360.28383861  .00001065  00000+0  64401-3 0  9996", "line2": "2 33605  98.6991 358.8081 0056867  37.0959 338.1047 14.07794683600099"}}, "geometry": {"type": "Point", "coordinates": [-14.341995087172199, 58.0048485199488]}}, {"type": "Feature", "properties": {"norad_id": 33612, "name": "FENGYUN 1C DEB", "group": "fengyun-1c-debris", "lat": -11.892342781103116, "lon": 147.9669192080275, "alt_km": 928.4361218773665, "timestamp": "2025-12-27T08:36:18.669050+00:00", "meta": {"OBJECT_NAME": "FENGYUN 1C DEB", "OBJECT_ID": "1999-025DCV", "EPOCH": "2025-12-13T20:28:43.869792", "MEAN_MOTION": 14.04084486, "ECCENTRICITY": 0.01112826, "INCLINATION": 98.5972, "RA_OF_ASC_NODE": 317.0094, "ARG_OF_PERICENTER": 105.6891, "MEAN_ANOMALY": 255.6586, "EPHEMERIS_TYPE": 0, "CLASSIFICATION_TYPE": "U", "NORAD_CAT_ID": 33612, "ELEMENT_SET_NO": 999, "REV_AT_EPOCH": 56689, "BSTAR": 0.0022025481, "MEAN_MOTION_DOT": 3.646e-05, "MEAN_MOTION_DDOT": 0}, "tle": {"line1": "1 33612U 99025DCV 25347.85328553  .00003646  00000+0  22025-2 0  9991", "line2": "2 33612  98.5972 317.0094 0111282 105.6891 255.6586 14.04084486566896"}}, "geometry": {"type": "Point", "coordinates": [147.9669192080275, -11.892342781103116]}}, {"type": "Feature", "properties": {"norad_id": 33613, "name": "FENGYUN 1C DEB", "group": "fengyun-1c-debris", "lat": 64.46013162392666, "lon": 54.45282812984968, "alt_km": 754.4298509254049, "timestamp": "2025-12-27T08:36:18.669063+00:00", "meta": {"OBJECT_NAME": "FENGYUN 1C DEB", "OBJECT_ID": "1999-025DCW", "EPOCH": "2025-12-26T22:14:54.286080", "MEAN_MOTION": 14.33343865, "ECCENTRICITY": 0.0029514, "INCLINATION": 98.6949, "RA_OF_ASC_NODE": 72.6981, "ARG_OF_PERICENTER": 46.7831, "MEAN_ANOMALY": 313.581, "EPHEMERIS_TYPE": 0, "CLASSIFICATION_TYPE": "U", "NORAD_CAT_ID": 33613, "ELEMENT_SET_NO": 999, "REV_AT_EPOCH": 64713, "BSTAR": 0.0022475, "MEAN_MOTION_DOT": 6.183e-05, "MEAN_MOTION_DDOT": 0}, "tle": {"line1": "1 33613U 99025DCW 25360.92701720  .00006183  00000+0  22475-2 0  9994", "line2": "2 33613  98.6949  72.6981 0029514  46.7831 313.5810 14.33343865647138"}}, "geometry": {"type": "Point", "coordinates": [54.45282812984968, 64.46013162392666]}}, {"type": "Feature", "properties": {"norad_id": 33618, "name": "FENGYUN 1C DEB", "group": "fengyun-1c-debris", "lat": 31.37787656339868, "lon": 83.92053422375805, "alt_km": 630.5058396392042, "timestamp": "2025-12-27T08:36:18.669073+00:00", "meta": {"OBJECT_NAME": "FENGYUN 1C DEB", "OBJECT_ID": "1999-025DDB", "EPOCH": "2025-12-26T12:45:14.908320", "MEAN_MOTION": 14.62259672, "ECCENTRICITY": 0.0164874, "INCLINATION": 98.5292, "RA_OF_ASC_NODE": 88.3178, "ARG_OF_PERICENTER": 97.8781, "MEAN_ANOMALY": 264.1169, "EPHEMERIS_TYPE": 0, "CLASSIFICATION_TYPE": "U", "NORAD_CAT_ID": 33618, "ELEMENT_SET_NO": 999, "REV_AT_EPOCH": 96985, "BSTAR": 0.00073718, "MEAN_MOTION_DOT": 4.462e-05, "MEAN_MOTION_DDOT": 0}, "tle": {"line1": "1 33618U 99025DDB 25360.53142255  .00004462  00000+0  73718-3 0  9993", "line2": "2 33618  98.5292  88.3178 0164874  97.8781 264.1169 14.62259672969853"}}, "geometry": {"type": "Point", "coordinates": [83.92053422375805, 31.37787656339868]}}, {"type": "Feature", "properties": {"norad_id": 33619, "name": "FENGYUN 1C DEB", "group": "fengyun-1c-debris", "lat": 80.16549761682292, "lon": 6.575297104309343, "alt_km": 820.7918767646934, "timestamp": "2025-12-27T08:36:18.669083+00:00", "meta": {"OBJECT_NAME": "FENGYUN 1C DEB", "OBJECT_ID": "1999-025DDC", "EPOCH": "2025-12-22T11:19:13.450944", "MEAN_MOTION": 14.17552951, "ECCENTRICITY": 0.00502437, "INCLINATION": 98.8607, "RA_OF_ASC_NODE": 65.8437, "ARG_OF_PERICENTER": 17.8745, "MEAN_ANOMALY": 342.4183, "EPHEMERIS_TYPE": 0, "CLASSIFICATION_TYPE": "U", "NORAD_CAT_ID": 33619, "ELEMENT_SET_NO": 999, "REV_AT_EPOCH": 63762, "BSTAR": 0.0012593794, "MEAN_MOTION_DOT": 2.545e-05, "MEAN_MOTION_DDOT": 0}, "tle": {"line1": "1 33619U 99025DDC 25356.47168346  .00002545  00000+0  12594-2 0  9995", "line2": "2 33619  98.8607  65.8437 0050243  17.8745 342.4183 14.17552951637620"}}, "geometry": {"type": "Point", "coordinates": [6.575297104309343, 80.16549761682292]}}, {"type": "Feature", "properties": {"norad_id": 33621, "name": "FENGYUN 1C DEB", "group": "fengyun-1c-debris", "lat": 80.10697853031306, "lon": 86.09624922074056, "alt_km": 1005.6822524593599, "timestamp": "2025-12-27T08:36:18.669093+00:00", "meta": {"OBJECT_NAME": "FENGYUN 1C DEB", "OBJECT_ID": "1999-025DDE", "EPOCH": "2025-12-10T20:17:14.702784", "MEAN_MOTION": 14.19482835, "ECCENTRICITY": 0.02846988, "INCLINATION": 98.1391, "RA_OF_ASC_NODE": 195.7496, "ARG_OF_PERICENTER": 300.0128, "MEAN_ANOMALY": 57.3079, "EPHEMERIS_TYPE": 0, "CLASSIFICATION_TYPE": "U", "NORAD_CAT_ID": 33621, "ELEMENT_SET_NO": 999, "REV_AT_EPOCH": 64217, "BSTAR": 0.00099524636, "MEAN_MOTION_DOT": 3.099e-05, "MEAN_MOTION_DDOT": 0}, "tle": {"line1": "1 33621U 99025DDE 25344.84530906  .00003099  00000+0  99525-3 0  9996", "line2": "2 33621  98.1391 195.7496 0284698 300.0128  57.3079 14.19482835642176"}}, "geometry": {"type": "Point", "coordinates": [86.09624922074056, 80.10697853031306]}}, {"type": "Feature", "properties": {"norad_id": 33625, "name": "FENGYUN 1C DEB", "group": "fengyun-1c-debris", "lat": 1.597676266946952, "lon": 112.38742645070701, "alt_km": 684.0185529607252, "timestamp": "2025-12-27T08:36:18.669103+00:00", "meta": {"OBJECT_NAME": "FENGYUN 1C DEB", "OBJECT_ID": "1999-025DDJ", "EPOCH": "2025-12-22T18:29:10.172832", "MEAN_MOTION": 14.61162738, "ECCENTRICITY": 0.02254632, "INCLINATION": 98.6202, "RA_OF_ASC_NODE": 107.8479, "ARG_OF_PERICENTER": 104.3386, "MEAN_ANOMALY": 258.2958, "EPHEMERIS_TYPE": 0, "CLASSIFICATION_TYPE": "U", "NORAD_CAT_ID": 33625, "ELEMENT_SET_NO": 999, "REV_AT_EPOCH": 61537, "BSTAR": 0.0010940286, "MEAN_MOTION_DOT": 7.684e-05, "MEAN_MOTION_DDOT": 0}, "tle": {"line1": "1 33625U 99025DDJ 25356.77025663  .00007684  00000+0  10940-2 0  9991", "line2": "2 33625  98.6202 107.8479 0225463 104.3386 258.2958 14.61162738615371"}}, "geometry": {"type": "Point", "coordinates": [112.38742645070701, 1.597676266946952]}}]}